{
  "type": "FeatureCollection",
  "features": [
    {
      "type": "Feature",
      "properties": {
        "norad_id": 41011,
        "name": "FENGYUN 1C DEB",
        "group": "fengyun-1c-debris",
        "lat": 66.53435656251041,
        "lon": 7.4029095253445325,
        "alt_km": 637.7024199944062,
        "timestamp": "2025-12-10T09:57:44.989395+00:00",
        "meta_object_name": "FENGYUN 1C DEB",
        "meta_object_id": "1999-025EXR",
        "meta_epoch": "2025-12-09T02:02:32.648640",
        "meta_mean_motion": 14.42863783,
        "meta_eccentricity": 0.03104191,
        "meta_inclination": 99.169,
        "meta_ra_of_asc_node": 27.8139,
        "meta_arg_of_pericenter": 8.9643,
        "meta_mean_anomaly": 351.6912,
        "meta_ephemeris_type": 0,
        "meta_classification_type": "U",
        "meta_norad_cat_id": 41011,
        "meta_element_set_no": 999,
        "meta_rev_at_epoch": 57104,
        "meta_bstar": 0.00066413797,
        "meta_mean_motion_dot": 3.918e-05,
        "meta_mean_motion_ddot": 0,
        "tle_line1": "1 41011U 99025EXR 25343.08510010  .00003918  00000+0  66414-3 0  9998",
        "tle_line2": "2 41011  99.1690  27.8139 0310419   8.9643 351.6912 14.42863783571041"
      },
      "geometry": {
        "type": "Point",
        "coordinates": [
          7.4029095253445325,
          66.53435656251041
        ]
      }
    },
    {
      "type": "Feature",
      "properties": {
        "norad_id": 41018,
        "name": "FENGYUN 1C DEB",
        "group": "fengyun-1c-debris",
        "lat": 62.2771195393555,
        "lon": -90.68513911563323,
        "alt_km": 941.186979150465,
        "timestamp": "2025-12-10T09:57:44.989405+00:00",
        "meta_object_name": "FENGYUN 1C DEB",
        "meta_object_id": "1999-025EXY",
        "meta_epoch": "2025-12-06T02:39:35.618688",
        "meta_mean_motion": 13.52334153,
        "meta_eccentricity": 0.0303705,
        "meta_inclination": 99.9355,
        "meta_ra_of_asc_node": 284.4824,
        "meta_arg_of_pericenter": 135.2291,
        "meta_mean_anomaly": 227.3789,
        "meta_ephemeris_type": 0,
        "meta_classification_type": "U",
        "meta_norad_cat_id": 41018,
        "meta_element_set_no": 999,
        "meta_rev_at_epoch": 88085,
        "meta_bstar": 0.0022581,
        "meta_mean_motion_dot": 1.949e-05,
        "meta_mean_motion_ddot": 0,
        "tle_line1": "1 41018U 99025EXY 25340.11082892  .00001949  00000+0  22581-2 0  9996",
        "tle_line2": "2 41018  99.9355 284.4824 0303705 135.2291 227.3789 13.52334153880856"
      },
      "geometry": {
        "type": "Point",
        "coordinates": [
          -90.68513911563323,
          62.2771195393555
        ]
      }
    },
    {
      "type": "Feature",
      "properties": {
        "norad_id": 41822,
        "name": "FENGYUN 1C DEB",
        "group": "fengyun-1c-debris",
        "lat": -41.975030511172555,
        "lon": -137.31085131729324,
        "alt_km": 776.2967375571507,
        "timestamp": "2025-12-10T09:57:44.989415+00:00",
        "meta_object_name": "FENGYUN 1C DEB",
        "meta_object_id": "1999-025EXZ",
        "meta_epoch": "2025-12-07T15:11:10.613472",
        "meta_mean_motion": 14.24742013,
        "meta_eccentricity": 0.0055132,
        "meta_inclination": 98.7319,
        "meta_ra_of_asc_node": 47.8699,
        "meta_arg_of_pericenter": 235.1055,
        "meta_mean_anomaly": 124.4935,
        "meta_ephemeris_type": 0,
        "meta_classification_type": "U",
        "meta_norad_cat_id": 41822,
        "meta_element_set_no": 999,
        "meta_rev_at_epoch": 47300,
        "meta_bstar": 0.0027484283,
        "meta_mean_motion_dot": 6.463e-05,
        "meta_mean_motion_ddot": 0,
        "tle_line1": "1 41822U 99025EXZ 25341.63276173  .00006463  00000+0  27484-2 0  9997",
        "tle_line2": "2 41822  98.7319  47.8699 0055132 235.1055 124.4935 14.24742013473006"
      },
      "geometry": {
        "type": "Point",
        "coordinates": [
          -137.31085131729324,
          -41.975030511172555
        ]
      }
    },
    {
      "type": "Feature",
      "properties": {
        "norad_id": 41823,
        "name": "FENGYUN 1C DEB",
        "group": "fengyun-1c-debris",
        "lat": -54.300316252055204,
        "lon": 60.093295744023,
        "alt_km": 806.9241519323687,
        "timestamp": "2025-12-10T09:57:44.989425+00:00",
        "meta_object_name": "FENGYUN 1C DEB",
        "meta_object_id": "1999-025EYA",
        "meta_epoch": "2025-12-10T03:28:26.812128",
        "meta_mean_motion": 14.23490134,
        "meta_eccentricity": 0.0054522,
        "meta_inclination": 98.7198,
        "meta_ra_of_asc_node": 47.493,
        "meta_arg_of_pericenter": 235.6412,
        "meta_mean_anomaly": 123.9602,
        "meta_ephemeris_type": 0,
        "meta_classification_type": "U",
        "meta_norad_cat_id": 41823,
        "meta_element_set_no": 999,
        "meta_rev_at_epoch": 47321,
        "meta_bstar": 0.0020425,
        "meta_mean_motion_dot": 4.673e-05,
        "meta_mean_motion_ddot": 0,
        "tle_line1": "1 41823U 99025EYA 25344.14475477  .00004673  00000+0  20425-2 0  9994",
        "tle_line2": "2 41823  98.7198  47.4930 0054522 235.6412 123.9602 14.23490134473211"
      },
      "geometry": {
        "type": "Point",
        "coordinates": [
          60.093295744023,
          -54.300316252055204
        ]
      }
    },
    {
      "type": "Feature",
      "properties": {
        "norad_id": 41824,
        "name": "FENGYUN 1C DEB",
        "group": "fengyun-1c-debris",
        "lat": 16.371950900912754,
        "lon": -128.95684187431897,
        "alt_km": 798.1369093320473,
        "timestamp": "2025-12-10T09:57:44.989435+00:00",
        "meta_object_name": "FENGYUN 1C DEB",
        "meta_object_id": "1999-025EYB",
        "meta_epoch": "2025-12-09T14:38:40.365024",
        "meta_mean_motion": 14.24127812,
        "meta_eccentricity": 0.0057173,
        "meta_inclination": 98.7308,
        "meta_ra_of_asc_node": 47.6562,
        "meta_arg_of_pericenter": 236.3091,
        "meta_mean_anomaly": 123.2629,
        "meta_ephemeris_type": 0,
        "meta_classification_type": "U",
        "meta_norad_cat_id": 41824,
        "meta_element_set_no": 999,
        "meta_rev_at_epoch": 47315,
        "meta_bstar": 0.0025688,
        "meta_mean_motion_dot": 5.973e-05,
        "meta_mean_motion_ddot": 0,
        "tle_line1": "1 41824U 99025EYB 25343.61018941  .00005973  00000+0  25688-2 0  9995",
        "tle_line2": "2 41824  98.7308  47.6562 0057173 236.3091 123.2629 14.24127812473150"
      },
      "geometry": {
        "type": "Point",
        "coordinates": [
          -128.95684187431897,
          16.371950900912754
        ]
      }
    },
    {
      "type": "Feature",
      "properties": {
        "norad_id": 41825,
        "name": "FENGYUN 1C DEB",
        "group": "fengyun-1c-debris",
        "lat": 19.336222139282544,
        "lon": 50.359027851209504,
        "alt_km": 843.7911917788551,
        "timestamp": "2025-12-10T09:57:44.989444+00:00",
        "meta_object_name": "FENGYUN 1C DEB",
        "meta_object_id": "1999-025EYC",
        "meta_epoch": "2025-12-09T03:32:17.389536",
        "meta_mean_motion": 14.25046246,
        "meta_eccentricity": 0.00555494,
        "meta_inclination": 98.7437,
        "meta_ra_of_asc_node": 52.192,
        "meta_arg_of_pericenter": 230.7898,
        "meta_mean_anomaly": 128.8342,
        "meta_ephemeris_type": 0,
        "meta_classification_type": "U",
        "meta_norad_cat_id": 41825,
        "meta_element_set_no": 999,
        "meta_rev_at_epoch": 47297,
        "meta_bstar": 0.002021998,
        "meta_mean_motion_dot": 4.772e-05,
        "meta_mean_motion_ddot": 0,
        "tle_line1": "1 41825U 99025EYC 25343.14742349  .00004772  00000+0  20220-2 0  9993",
        "tle_line2": "2 41825  98.7437  52.1920 0055549 230.7898 128.8342 14.25046246472975"
      },
      "geometry": {
        "type": "Point",
        "coordinates": [
          50.359027851209504,
          19.336222139282544
        ]
      }
    },
    {
      "type": "Feature",
      "properties": {
        "norad_id": 41826,
        "name": "FENGYUN 1C DEB",
        "group": "fengyun-1c-debris",
        "lat": 2.7498011302065724,
        "lon": 49.80344797301034,
        "alt_km": 842.3641769831256,
        "timestamp": "2025-12-10T09:57:44.989454+00:00",
        "meta_object_name": "FENGYUN 1C DEB",
        "meta_object_id": "1999-025EYD",
        "meta_epoch": "2025-12-09T15:23:45.036672",
        "meta_mean_motion": 14.23715983,
        "meta_eccentricity": 0.0055587,
        "meta_inclination": 98.7343,
        "meta_ra_of_asc_node": 49.4584,
        "meta_arg_of_pericenter": 232.3683,
        "meta_mean_anomaly": 127.2444,
        "meta_ephemeris_type": 0,
        "meta_classification_type": "U",
        "meta_norad_cat_id": 41826,
        "meta_element_set_no": 999,
        "meta_rev_at_epoch": 47316,
        "meta_bstar": 0.002336,
        "meta_mean_motion_dot": 5.379e-05,
        "meta_mean_motion_ddot": 0,
        "tle_line1": "1 41826U 99025EYD 25343.64149348  .00005379  00000+0  23360-2 0  9991",
        "tle_line2": "2 41826  98.7343  49.4584 0055587 232.3683 127.2444 14.23715983473166"
      },
      "geometry": {
        "type": "Point",
        "coordinates": [
          49.80344797301034,
          2.7498011302065724
        ]
      }
    }
  ]
}